<?xml version="1.0" encoding="UTF-8"?>
<gpx xmlns:gpxdata="http://www.cluetrust.com/XML/GPXDATA/1/0" xmlns:xsi="http://www.w3.org/2001/XMLSchema-instance" xmlns="http://www.topografix.com/GPX/1/1" version="1.1" creator="http://ridewithgps.com/" xsi:schemaLocation="http://www.topografix.com/GPX/1/1 http://www.topografix.com/GPX/1/1/gpx.xsd http://www.cluetrust.com/XML/GPXDATA/1/0 http://www.cluetrust.com/Schemas/gpxdata10.xsd">
  <metadata>
    <name>Rhodes</name>
    <link href="https://ridewithgps.com/routes/55595313">
      <text>Rhodes</text>
    </link>
    <time>2026-06-11T13:19:40Z</time>
  </metadata>
  <trk>
    <name>Rhodes</name>
    <trkseg>
      <trkpt lat="-33.84748" lon="151.08177">
        <ele>7.0</ele>
      </trkpt>
      <trkpt lat="-33.84745" lon="151.08164">
        <ele>6.8</ele>
      </trkpt>
      <trkpt lat="-33.84743" lon="151.08155">
        <ele>6.4</ele>
      </trkpt>
      <trkpt lat="-33.84743" lon="151.08135">
        <ele>6.4</ele>
      </trkpt>
      <trkpt lat="-33.84746" lon="151.08114">
        <ele>6.5</ele>
      </trkpt>
      <trkpt lat="-33.84767" lon="151.08017">
        <ele>6.9</ele>
      </trkpt>
      <trkpt lat="-33.84766" lon="151.08017">
        <ele>7.0</ele>
      </trkpt>
      <trkpt lat="-33.8476" lon="151.08014">
        <ele>7.1</ele>
      </trkpt>
      <trkpt lat="-33.84756" lon="151.08014">
        <ele>7.1</ele>
      </trkpt>
      <trkpt lat="-33.84729" lon="151.08025">
        <ele>6.4</ele>
      </trkpt>
      <trkpt lat="-33.84712" lon="151.08026">
        <ele>6.3</ele>
      </trkpt>
      <trkpt lat="-33.84703" lon="151.08025">
        <ele>6.3</ele>
      </trkpt>
      <trkpt lat="-33.84683" lon="151.08016">
        <ele>6.5</ele>
      </trkpt>
      <trkpt lat="-33.84662" lon="151.08">
        <ele>7.1</ele>
      </trkpt>
      <trkpt lat="-33.84654" lon="151.07996">
        <ele>7.2</ele>
      </trkpt>
      <trkpt lat="-33.84646" lon="151.07993">
        <ele>7.3</ele>
      </trkpt>
      <trkpt lat="-33.84586" lon="151.07988">
        <ele>7.7</ele>
      </trkpt>
      <trkpt lat="-33.84526" lon="151.07985">
        <ele>7.8</ele>
      </trkpt>
      <trkpt lat="-33.84466" lon="151.07983">
        <ele>7.6</ele>
      </trkpt>
      <trkpt lat="-33.8445" lon="151.07982">
        <ele>7.6</ele>
      </trkpt>
      <trkpt lat="-33.84362" lon="151.07981">
        <ele>7.5</ele>
      </trkpt>
      <trkpt lat="-33.84273" lon="151.07983">
        <ele>8.6</ele>
      </trkpt>
      <trkpt lat="-33.84214" lon="151.07997">
        <ele>7.6</ele>
      </trkpt>
      <trkpt lat="-33.84161" lon="151.08">
        <ele>6.9</ele>
      </trkpt>
      <trkpt lat="-33.84108" lon="151.08004">
        <ele>5.6</ele>
      </trkpt>
      <trkpt lat="-33.8405" lon="151.08006">
        <ele>4.8</ele>
      </trkpt>
      <trkpt lat="-33.83991" lon="151.08009">
        <ele>4.0</ele>
      </trkpt>
      <trkpt lat="-33.83979" lon="151.08008">
        <ele>3.3</ele>
      </trkpt>
      <trkpt lat="-33.83973" lon="151.08005">
        <ele>2.9</ele>
      </trkpt>
      <trkpt lat="-33.83968" lon="151.08">
        <ele>2.5</ele>
      </trkpt>
      <trkpt lat="-33.83964" lon="151.07985">
        <ele>1.9</ele>
      </trkpt>
      <trkpt lat="-33.83963" lon="151.07964">
        <ele>1.3</ele>
      </trkpt>
      <trkpt lat="-33.8396" lon="151.07959">
        <ele>1.1</ele>
      </trkpt>
      <trkpt lat="-33.83956" lon="151.07957">
        <ele>0.9</ele>
      </trkpt>
      <trkpt lat="-33.83942" lon="151.07955">
        <ele>0.6</ele>
      </trkpt>
      <trkpt lat="-33.83914" lon="151.07961">
        <ele>5.6</ele>
      </trkpt>
      <trkpt lat="-33.83842" lon="151.07971">
        <ele>9.0</ele>
      </trkpt>
      <trkpt lat="-33.8381" lon="151.07975">
        <ele>8.7</ele>
      </trkpt>
      <trkpt lat="-33.8379" lon="151.07977">
        <ele>7.9</ele>
      </trkpt>
      <trkpt lat="-33.83772" lon="151.07979">
        <ele>7.3</ele>
      </trkpt>
      <trkpt lat="-33.83754" lon="151.07978">
        <ele>6.3</ele>
      </trkpt>
      <trkpt lat="-33.83736" lon="151.07979">
        <ele>5.0</ele>
      </trkpt>
      <trkpt lat="-33.83674" lon="151.07984">
        <ele>5.5</ele>
      </trkpt>
      <trkpt lat="-33.83653" lon="151.07987">
        <ele>7.0</ele>
      </trkpt>
      <trkpt lat="-33.83612" lon="151.07989">
        <ele>7.1</ele>
      </trkpt>
      <trkpt lat="-33.83585" lon="151.07993">
        <ele>5.3</ele>
      </trkpt>
      <trkpt lat="-33.83571" lon="151.07991">
        <ele>4.1</ele>
      </trkpt>
      <trkpt lat="-33.83562" lon="151.07986">
        <ele>3.7</ele>
      </trkpt>
      <trkpt lat="-33.83553" lon="151.07975">
        <ele>3.4</ele>
      </trkpt>
      <trkpt lat="-33.83544" lon="151.07963">
        <ele>3.1</ele>
      </trkpt>
      <trkpt lat="-33.83541" lon="151.07953">
        <ele>3.0</ele>
      </trkpt>
      <trkpt lat="-33.83541" lon="151.07938">
        <ele>3.0</ele>
      </trkpt>
      <trkpt lat="-33.83536" lon="151.07925">
        <ele>3.0</ele>
      </trkpt>
      <trkpt lat="-33.83532" lon="151.07902">
        <ele>0.6</ele>
      </trkpt>
      <trkpt lat="-33.83534" lon="151.0785">
        <ele>2.7</ele>
      </trkpt>
      <trkpt lat="-33.83526" lon="151.07803">
        <ele>3.8</ele>
      </trkpt>
      <trkpt lat="-33.83526" lon="151.07782">
        <ele>4.2</ele>
      </trkpt>
      <trkpt lat="-33.83527" lon="151.07763">
        <ele>4.5</ele>
      </trkpt>
      <trkpt lat="-33.83527" lon="151.07737">
        <ele>4.8</ele>
      </trkpt>
      <trkpt lat="-33.83519" lon="151.07692">
        <ele>5.2</ele>
      </trkpt>
      <trkpt lat="-33.83518" lon="151.07682">
        <ele>5.3</ele>
      </trkpt>
      <trkpt lat="-33.83521" lon="151.07665">
        <ele>5.5</ele>
      </trkpt>
      <trkpt lat="-33.83521" lon="151.07659">
        <ele>5.4</ele>
      </trkpt>
      <trkpt lat="-33.83523" lon="151.07657">
        <ele>5.5</ele>
      </trkpt>
      <trkpt lat="-33.83537" lon="151.07655">
        <ele>5.8</ele>
      </trkpt>
      <trkpt lat="-33.83545" lon="151.07655">
        <ele>6.0</ele>
      </trkpt>
      <trkpt lat="-33.83547" lon="151.07649">
        <ele>6.0</ele>
      </trkpt>
      <trkpt lat="-33.83532" lon="151.07637">
        <ele>5.5</ele>
      </trkpt>
      <trkpt lat="-33.83495" lon="151.07603">
        <ele>5.3</ele>
      </trkpt>
      <trkpt lat="-33.83456" lon="151.07567">
        <ele>5.2</ele>
      </trkpt>
      <trkpt lat="-33.83426" lon="151.07539">
        <ele>5.1</ele>
      </trkpt>
      <trkpt lat="-33.83418" lon="151.07527">
        <ele>5.0</ele>
      </trkpt>
      <trkpt lat="-33.83366" lon="151.0747">
        <ele>5.3</ele>
      </trkpt>
      <trkpt lat="-33.83333" lon="151.07425">
        <ele>3.4</ele>
      </trkpt>
      <trkpt lat="-33.83325" lon="151.07433">
        <ele>3.8</ele>
      </trkpt>
      <trkpt lat="-33.83323" lon="151.07439">
        <ele>4.0</ele>
      </trkpt>
      <trkpt lat="-33.8329" lon="151.075">
        <ele>4.4</ele>
      </trkpt>
      <trkpt lat="-33.83265" lon="151.07522">
        <ele>4.1</ele>
      </trkpt>
      <trkpt lat="-33.83254" lon="151.07532">
        <ele>3.9</ele>
      </trkpt>
      <trkpt lat="-33.83214" lon="151.07566">
        <ele>3.5</ele>
      </trkpt>
      <trkpt lat="-33.83175" lon="151.076">
        <ele>4.5</ele>
      </trkpt>
      <trkpt lat="-33.83107" lon="151.07658">
        <ele>3.6</ele>
      </trkpt>
      <trkpt lat="-33.83039" lon="151.07717">
        <ele>5.1</ele>
      </trkpt>
      <trkpt lat="-33.83008" lon="151.07742">
        <ele>7.9</ele>
      </trkpt>
      <trkpt lat="-33.82958" lon="151.07787">
        <ele>6.6</ele>
      </trkpt>
      <trkpt lat="-33.82906" lon="151.07831">
        <ele>5.7</ele>
      </trkpt>
      <trkpt lat="-33.82852" lon="151.07877">
        <ele>1.7</ele>
      </trkpt>
      <trkpt lat="-33.82798" lon="151.07923">
        <ele>1.2</ele>
      </trkpt>
      <trkpt lat="-33.82798" lon="151.07922">
        <ele>1.2</ele>
      </trkpt>
      <trkpt lat="-33.82798" lon="151.07922">
        <ele>1.2</ele>
      </trkpt>
      <trkpt lat="-33.8279" lon="151.07909">
        <ele>1.7</ele>
      </trkpt>
      <trkpt lat="-33.82784" lon="151.07914">
        <ele>1.8</ele>
      </trkpt>
      <trkpt lat="-33.82728" lon="151.07962">
        <ele>3.4</ele>
      </trkpt>
      <trkpt lat="-33.82723" lon="151.07963">
        <ele>3.8</ele>
      </trkpt>
      <trkpt lat="-33.82723" lon="151.07965">
        <ele>3.8</ele>
      </trkpt>
      <trkpt lat="-33.82721" lon="151.07968">
        <ele>3.9</ele>
      </trkpt>
      <trkpt lat="-33.82668" lon="151.08014">
        <ele>7.4</ele>
      </trkpt>
      <trkpt lat="-33.82662" lon="151.08015">
        <ele>7.4</ele>
      </trkpt>
      <trkpt lat="-33.82661" lon="151.08015">
        <ele>7.4</ele>
      </trkpt>
      <trkpt lat="-33.82658" lon="151.08012">
        <ele>7.6</ele>
      </trkpt>
      <trkpt lat="-33.82628" lon="151.07963">
        <ele>7.2</ele>
      </trkpt>
      <trkpt lat="-33.82625" lon="151.07959">
        <ele>7.0</ele>
      </trkpt>
      <trkpt lat="-33.82621" lon="151.07958">
        <ele>6.8</ele>
      </trkpt>
      <trkpt lat="-33.82618" lon="151.07958">
        <ele>6.7</ele>
      </trkpt>
      <trkpt lat="-33.82612" lon="151.07945">
        <ele>6.0</ele>
      </trkpt>
      <trkpt lat="-33.82606" lon="151.07933">
        <ele>5.2</ele>
      </trkpt>
      <trkpt lat="-33.82596" lon="151.07941">
        <ele>4.9</ele>
      </trkpt>
      <trkpt lat="-33.8262" lon="151.07979">
        <ele>7.3</ele>
      </trkpt>
      <trkpt lat="-33.82654" lon="151.08037">
        <ele>6.5</ele>
      </trkpt>
      <trkpt lat="-33.82668" lon="151.08061">
        <ele>6.2</ele>
      </trkpt>
      <trkpt lat="-33.82668" lon="151.08061">
        <ele>6.2</ele>
      </trkpt>
      <trkpt lat="-33.82714" lon="151.08137">
        <ele>5.3</ele>
      </trkpt>
      <trkpt lat="-33.82759" lon="151.08213">
        <ele>4.3</ele>
      </trkpt>
      <trkpt lat="-33.82772" lon="151.08237">
        <ele>4.0</ele>
      </trkpt>
      <trkpt lat="-33.82783" lon="151.08265">
        <ele>3.7</ele>
      </trkpt>
      <trkpt lat="-33.82791" lon="151.08293">
        <ele>3.4</ele>
      </trkpt>
      <trkpt lat="-33.82795" lon="151.0831">
        <ele>3.2</ele>
      </trkpt>
      <trkpt lat="-33.828" lon="151.08346">
        <ele>2.8</ele>
      </trkpt>
      <trkpt lat="-33.82808" lon="151.08402">
        <ele>2.3</ele>
      </trkpt>
      <trkpt lat="-33.82806" lon="151.08405">
        <ele>2.3</ele>
      </trkpt>
      <trkpt lat="-33.82794" lon="151.08327">
        <ele>5.9</ele>
      </trkpt>
      <trkpt lat="-33.82884" lon="151.08324">
        <ele>5.9</ele>
      </trkpt>
      <trkpt lat="-33.82963" lon="151.08324">
        <ele>8.3</ele>
      </trkpt>
      <trkpt lat="-33.83043" lon="151.08324">
        <ele>3.4</ele>
      </trkpt>
      <trkpt lat="-33.83043" lon="151.08324">
        <ele>3.4</ele>
      </trkpt>
      <trkpt lat="-33.83077" lon="151.08325">
        <ele>0.5</ele>
      </trkpt>
      <trkpt lat="-33.83165" lon="151.08319">
        <ele>1.6</ele>
      </trkpt>
      <trkpt lat="-33.83252" lon="151.08313">
        <ele>0.0</ele>
      </trkpt>
      <trkpt lat="-33.8334" lon="151.08308">
        <ele>-1.3</ele>
      </trkpt>
      <trkpt lat="-33.83428" lon="151.08302">
        <ele>0.2</ele>
      </trkpt>
      <trkpt lat="-33.83433" lon="151.08306">
        <ele>0.3</ele>
      </trkpt>
      <trkpt lat="-33.83449" lon="151.08408">
        <ele>1.1</ele>
      </trkpt>
      <trkpt lat="-33.83462" lon="151.08408">
        <ele>1.6</ele>
      </trkpt>
      <trkpt lat="-33.83478" lon="151.08403">
        <ele>2.1</ele>
      </trkpt>
      <trkpt lat="-33.83511" lon="151.08381">
        <ele>3.3</ele>
      </trkpt>
      <trkpt lat="-33.83521" lon="151.08376">
        <ele>3.8</ele>
      </trkpt>
      <trkpt lat="-33.83537" lon="151.0837">
        <ele>4.6</ele>
      </trkpt>
      <trkpt lat="-33.83564" lon="151.08365">
        <ele>6.0</ele>
      </trkpt>
      <trkpt lat="-33.83571" lon="151.08361">
        <ele>6.3</ele>
      </trkpt>
      <trkpt lat="-33.83578" lon="151.08358">
        <ele>6.6</ele>
      </trkpt>
      <trkpt lat="-33.8359" lon="151.08357">
        <ele>7.0</ele>
      </trkpt>
      <trkpt lat="-33.83594" lon="151.08355">
        <ele>7.0</ele>
      </trkpt>
      <trkpt lat="-33.8361" lon="151.08347">
        <ele>6.9</ele>
      </trkpt>
      <trkpt lat="-33.83632" lon="151.08333">
        <ele>6.6</ele>
      </trkpt>
      <trkpt lat="-33.83635" lon="151.08333">
        <ele>6.6</ele>
      </trkpt>
      <trkpt lat="-33.83642" lon="151.0834">
        <ele>7.1</ele>
      </trkpt>
      <trkpt lat="-33.83677" lon="151.08294">
        <ele>3.9</ele>
      </trkpt>
      <trkpt lat="-33.83691" lon="151.08286">
        <ele>3.4</ele>
      </trkpt>
      <trkpt lat="-33.83707" lon="151.08281">
        <ele>3.1</ele>
      </trkpt>
      <trkpt lat="-33.83726" lon="151.08279">
        <ele>3.2</ele>
      </trkpt>
      <trkpt lat="-33.83746" lon="151.08281">
        <ele>3.7</ele>
      </trkpt>
      <trkpt lat="-33.83789" lon="151.08291">
        <ele>4.5</ele>
      </trkpt>
      <trkpt lat="-33.83806" lon="151.0829">
        <ele>4.2</ele>
      </trkpt>
      <trkpt lat="-33.83812" lon="151.08289">
        <ele>4.0</ele>
      </trkpt>
      <trkpt lat="-33.83812" lon="151.08289">
        <ele>4.0</ele>
      </trkpt>
      <trkpt lat="-33.83856" lon="151.0828">
        <ele>3.6</ele>
      </trkpt>
      <trkpt lat="-33.83873" lon="151.08277">
        <ele>3.8</ele>
      </trkpt>
      <trkpt lat="-33.83892" lon="151.08278">
        <ele>4.2</ele>
      </trkpt>
      <trkpt lat="-33.83908" lon="151.0828">
        <ele>4.6</ele>
      </trkpt>
      <trkpt lat="-33.83941" lon="151.08291">
        <ele>5.9</ele>
      </trkpt>
      <trkpt lat="-33.83958" lon="151.08291">
        <ele>6.5</ele>
      </trkpt>
      <trkpt lat="-33.84003" lon="151.08287">
        <ele>7.7</ele>
      </trkpt>
      <trkpt lat="-33.84048" lon="151.08283">
        <ele>7.2</ele>
      </trkpt>
      <trkpt lat="-33.8409" lon="151.08276">
        <ele>6.9</ele>
      </trkpt>
      <trkpt lat="-33.84137" lon="151.08268">
        <ele>6.4</ele>
      </trkpt>
      <trkpt lat="-33.84165" lon="151.08269">
        <ele>6.0</ele>
      </trkpt>
      <trkpt lat="-33.84195" lon="151.0827">
        <ele>5.9</ele>
      </trkpt>
      <trkpt lat="-33.8424" lon="151.08267">
        <ele>5.7</ele>
      </trkpt>
      <trkpt lat="-33.84327" lon="151.08259">
        <ele>3.5</ele>
      </trkpt>
      <trkpt lat="-33.84343" lon="151.08255">
        <ele>3.5</ele>
      </trkpt>
      <trkpt lat="-33.84365" lon="151.08245">
        <ele>4.1</ele>
      </trkpt>
      <trkpt lat="-33.84374" lon="151.08243">
        <ele>4.4</ele>
      </trkpt>
      <trkpt lat="-33.84383" lon="151.08245">
        <ele>4.8</ele>
      </trkpt>
      <trkpt lat="-33.844" lon="151.08249">
        <ele>5.4</ele>
      </trkpt>
      <trkpt lat="-33.84413" lon="151.0825">
        <ele>5.9</ele>
      </trkpt>
      <trkpt lat="-33.84487" lon="151.08243">
        <ele>5.8</ele>
      </trkpt>
      <trkpt lat="-33.84492" lon="151.08243">
        <ele>5.8</ele>
      </trkpt>
      <trkpt lat="-33.84547" lon="151.08234">
        <ele>5.8</ele>
      </trkpt>
      <trkpt lat="-33.84619" lon="151.08231">
        <ele>5.8</ele>
      </trkpt>
      <trkpt lat="-33.84627" lon="151.08229">
        <ele>5.8</ele>
      </trkpt>
      <trkpt lat="-33.84662" lon="151.08221">
        <ele>5.9</ele>
      </trkpt>
      <trkpt lat="-33.84676" lon="151.0822">
        <ele>6.1</ele>
      </trkpt>
      <trkpt lat="-33.84695" lon="151.08213">
        <ele>6.3</ele>
      </trkpt>
      <trkpt lat="-33.8472" lon="151.08191">
        <ele>6.6</ele>
      </trkpt>
      <trkpt lat="-33.8473" lon="151.08186">
        <ele>6.8</ele>
      </trkpt>
      <trkpt lat="-33.84739" lon="151.08186">
        <ele>6.9</ele>
      </trkpt>
      <trkpt lat="-33.84744" lon="151.08188">
        <ele>6.9</ele>
      </trkpt>
      <trkpt lat="-33.84745" lon="151.08181">
        <ele>6.9</ele>
      </trkpt>
      <trkpt lat="-33.84748" lon="151.08177">
        <ele>7.0</ele>
      </trkpt>
    </trkseg>
  </trk>
</gpx>
